H1 CPF  1  DLR 2022 06 26 10  6772 technosat            
H2  1704205 6203    42829 2022 06 26 00 00 00 2022 07 03 00 00 00    60 1 1  0 0 0
H9
10 0 59759  79200.000000  0       3445971.109      -1368174.149       5904963.841
10 0 59759  79260.000000  0       3737294.515      -1621447.871       5659425.024
10 0 59759  79320.000000  0       4010730.128      -1870385.078       5389952.934
10 0 59759  79380.000000  0       4265171.535      -2113778.451       5097684.935
10 0 59759  79440.000000  0       4499602.077      -2350434.304       4783854.744
10 0 59759  79500.000000  0       4713099.080      -2579178.450       4449787.426
10 0 59759  79560.000000  0       4904837.658      -2798862.022       4096893.941
10 0 59759  79620.000000  0       5074094.075      -3008367.242       3726665.296
10 0 59759  79680.000000  0       5220248.648      -3206613.081       3340666.283
10 0 59759  79740.000000  0       5342788.114      -3392560.781       2940528.882
10 0 59759  79800.000000  0       5441307.498      -3565219.251       2527945.379
10 0 59759  79860.000000  0       5515511.473      -3723650.271       2104661.230
10 0 59759  79920.000000  0       5565215.266      -3866973.557       1672467.672
10 0 59759  79980.000000  0       5590345.024      -3994371.545       1233194.003
10 0 59759  80040.000000  0       5590937.587      -4105093.822        788699.714
10 0 59759  80100.000000  0       5567139.809      -4198461.311        340866.570
10 0 59759  80160.000000  0       5519207.371      -4273870.216       -108409.526
10 0 59759  80220.000000  0       5447502.991      -4330795.531       -557226.791
10 0 59759  80280.000000  0       5352494.140      -4368794.124      -1003685.755
10 0 59759  80340.000000  0       5234750.313      -4387507.515      -1445897.447
10 0 59759  80400.000000  0       5094939.764      -4386664.211      -1881991.584
10 0 59759  80460.000000  0       4933825.769      -4366081.583      -2310124.579
10 0 59759  80520.000000  0       4752262.504      -4325667.366      -2728487.411
10 0 59759  80580.000000  0       4551190.508      -4265420.727      -3135313.356
10 0 59759  80640.000000  0       4331631.751      -4185432.841      -3528885.515
10 0 59759  80700.000000  0       4094684.328      -4085887.021      -3907544.001
10 0 59759  80760.000000  0       3841516.907      -3967058.452      -4269692.890
10 0 59759  80820.000000  0       3573362.856      -3829313.474      -4613806.875
10 0 59759  80880.000000  0       3291514.128      -3673108.411      -4938437.547
10 0 59759  80940.000000  0       2997314.945      -3498988.004      -5242219.311
10 0 59759  81000.000000  0       2692155.314      -3307583.425      -5523874.869
10 0 59759  81060.000000  0       2377464.460      -3099609.947      -5782220.322
10 0 59759  81120.000000  0       2054704.170      -2875864.253      -6016169.923
10 0 59759  81180.000000  0       1725362.020      -2637221.378      -6224740.487
10 0 59759  81240.000000  0       1390944.514      -2384631.219      -6407055.362
10 0 59759  81300.000000  0       1052970.196      -2119114.679      -6562347.899
10 0 59759  81360.000000  0        712962.818      -1841759.495      -6689964.430
10 0 59759  81420.000000  0        372444.563      -1553715.827      -6789366.813
10 0 59759  81480.000000  0         32929.314      -1256191.522      -6860134.539
10 0 59759  81540.000000  0       -304083.921       -950447.121      -6901966.358
10 0 59759  81600.000000  0       -637117.479       -637790.650      -6914681.536
10 0 59759  81660.000000  0       -964721.454       -319572.136      -6898220.673
10 0 59759  81720.000000  0      -1285479.943          2822.105      -6852645.986
10 0 59759  81780.000000  0      -1598017.088        327975.375      -6778141.167
10 0 59759  81840.000000  0      -1901002.911        654446.678      -6675010.798
10 0 59759  81900.000000  0      -2193158.920        980777.011      -6543679.310
10 0 59759  81960.000000  0      -2473263.472       1305495.776      -6384689.472
10 0 59759  82020.000000  0      -2740156.915       1627127.273      -6198700.445
10 0 59759  82080.000000  0      -2992746.465       1944197.357      -5986485.404
10 0 59759  82140.000000  0      -3230010.801       2255240.192      -5748928.692
10 0 59759  82200.000000  0      -3451004.374       2558805.056      -5487022.498
10 0 59759  82260.000000  0      -3654861.401       2853463.177      -5201863.032
10 0 59759  82320.000000  0      -3840799.495       3137814.546      -4894646.196
10 0 59759  82380.000000  0      -4008122.892       3410494.679      -4566662.811
10 0 59759  82440.000000  0      -4156225.259       3670181.295      -4219293.393
10 0 59759  82500.000000  0      -4284592.049       3915600.874      -3854002.536
10 0 59759  82560.000000  0      -4392802.466       4145535.093      -3472332.936
10 0 59759  82620.000000  0      -4480531.054       4358827.090      -3075898.993
10 0 59759  82680.000000  0      -4547548.795       4554387.456      -2666379.948
10 0 59759  82740.000000  0      -4593723.698       4731199.930      -2245512.780
10 0 59759  82800.000000  0      -4619020.968       4888326.878      -1815084.795
10 0 59759  82860.000000  0      -4623502.714       5024914.406      -1376925.872
10 0 59759  82920.000000  0      -4607327.166       5140197.117       -932900.500
10 0 59759  82980.000000  0      -4570747.384       5233502.516       -484899.483
10 0 59759  83040.000000  0      -4514109.304       5304254.749        -34831.524
10 0 59759  83100.000000  0      -4437849.515       5351977.956        415385.018
10 0 59759  83160.000000  0      -4342492.693       5376299.371        863830.716
10 0 59759  83220.000000  0      -4228648.358       5376951.675       1308593.743
10 0 59759  83280.000000  0      -4097007.263       5353774.776       1747778.347
10 0 59759  83340.000000  0      -3948337.404       5306717.114       2179513.289
10 0 59759  83400.000000  0      -3783479.603       5235836.406       2601960.105
10 0 59759  83460.000000  0      -3603342.762       5141299.854       3013321.168
10 0 59759  83520.000000  0      -3408898.824       5023383.781       3411847.495
10 0 59759  83580.000000  0      -3201177.539       4882472.801       3795846.298
10 0 59759  83640.000000  0      -2981260.941       4719058.450       4163688.321
10 0 59759  83700.000000  0      -2750277.585       4533737.245       4513814.797
10 0 59759  83760.000000  0      -2509396.670       4327208.266       4844744.030
10 0 59759  83820.000000  0      -2259822.022       4100270.236       5155077.615
10 0 59759  83880.000000  0      -2002785.974       3853818.139       5443506.246
10 0 59759  83940.000000  0      -1739543.166       3588839.387       5708815.058
10 0 59759  84000.000000  0      -1471364.340       3306409.597       5949888.512
10 0 59759  84060.000000  0      -1199530.160       3007687.954       6165714.857
10 0 59759  84120.000000  0       -925325.048       2693912.162       6355390.060
10 0 59759  84180.000000  0       -650031.176       2366393.178       6518121.239
10 0 59759  84240.000000  0       -374922.523       2026509.659       6653229.770
10 0 59759  84300.000000  0       -101258.981       1675702.008       6760153.925
10 0 59759  84360.000000  0        169719.385       1315466.150       6838450.917
10 0 59759  84420.000000  0        436797.902        947347.123       6887798.465
10 0 59759  84480.000000  0        698792.653        572932.485       6907995.922
10 0 59759  84540.000000  0        954555.645        193845.512       6898964.959
10 0 59759  84600.000000  0       1202979.759       -188261.786       6860749.808
10 0 59759  84660.000000  0       1443003.482       -571715.848       6793517.022
10 0 59759  84720.000000  0       1673615.393       -954828.862       6697554.675
10 0 59759  84780.000000  0       1893858.349      -1335906.066       6573271.131
10 0 59759  84840.000000  0       2102833.428      -1713253.178       6421193.455
10 0 59759  84900.000000  0       2299703.593      -2085183.933       6241965.282
10 0 59759  84960.000000  0       2483697.040      -2450027.570       6036344.198
10 0 59759  85020.000000  0       2654110.249      -2806136.319       5805198.690
10 0 59759  85080.000000  0       2810310.661      -3151892.853       5549504.621
10 0 59759  85140.000000  0       2951739.004      -3485717.647       5270341.285
10 0 59759  85200.000000  0       3077911.309      -3806076.217       4968887.040
10 0 59759  85260.000000  0       3188420.591      -4111486.251       4646414.564
10 0 59759  85320.000000  0       3282938.166      -4400524.631       4304285.617
10 0 59759  85380.000000  0       3361214.534      -4671834.159       3943945.352
10 0 59759  85440.000000  0       3423079.895      -4924130.010       3566916.347
10 0 59759  85500.000000  0       3468444.311      -5156205.979       3174792.270
10 0 59759  85560.000000  0       3497297.474      -5366940.400       2769231.161
10 0 59759  85620.000000  0       3509708.042      -5555301.679       2351948.406
10 0 59759  85680.000000  0       3505822.612      -5720353.466       1924709.493
10 0 59759  85740.000000  0       3485864.301      -5861259.424       1489322.446
10 0 59759  85800.000000  0       3450130.957      -5977287.442       1047630.083
10 0 59759  85860.000000  0       3398993.036      -6067813.421        601502.164
10 0 59759  85920.000000  0       3332891.143      -6132324.677        152827.434
10 0 59759  85980.000000  0       3252333.249      -6170422.869       -296494.600
10 0 59759  86040.000000  0       3157891.482      -6181826.249       -744561.998
10 0 59759  86100.000000  0       3050198.583      -6166371.259      -1189478.608
10 0 59759  86160.000000  0       2929944.147      -6124013.658      -1629362.154
10 0 59759  86220.000000  0       2797870.635      -6054829.183      -2062352.327
10 0 59759  86280.000000  0       2654769.103      -5959013.538      -2486618.822
10 0 59759  86340.000000  0       2501474.777      -5836881.831      -2900369.189
99
